*******************************************************************************
JPL/HORIZONS                136 Austria (A874 FA)          2020-Jun-20 08:19:10
Rec #:     136 (+COV) Soln.date: 2020-May-20_00:59:16   # obs: 2759 (1877-2020)
 
IAU76/J2000 helio. ecliptic osc. elements (au, days, deg., period=Julian yrs):
 
  EPOCH=  2456006.5 ! 2012-Mar-20.00 (TDB)         Residual RMS= .3251
   EC= .0855138910204061   QR= 2.090882381939687   TP= 2456574.240278407
   OM= 186.5128472728368   W=  132.3285300929045   IN= 9.573217567445452
   A= 2.286401467894078    MA= 198.1454007155986   ADIST= 2.481920553848469
   PER= 3.4573             N= .28508563            ANGMOM= .025915759
   DAN= 2.40836            DDN= 2.1461             L= 319.2416379
   B= 7.062426             MOID= 1.08999002        TP= 2013-Oct-08.7402784070
 
Asteroid physical parameters (km, seconds, rotational period in hours):
   GM= n.a.                RAD= 18.4465            ROTPER= 11.4969
   H= 9.7                  G= .150                 B-V= .752
                           ALBEDO= .201            STYP= Xe
 
ASTEROID comments: 
1: soln ref.= JPL#69, OCC=0
2: source=ORB
*******************************************************************************
 
 
*******************************************************************************
Ephemeris / WWW_USER Sat Jun 20 08:19:10 2020 Pasadena, USA      / Horizons
*******************************************************************************
Target body name: 136 Austria (A874 FA)           {source: JPL#69}
Center body name: Solar System Barycenter (0)     {source: DE431}
Center-site name: BODY CENTER
*******************************************************************************
Start time      : A.D. 1969-Jun-28 00:00:00.0000 TDB
Stop  time      : A.D. 2071-May-04 00:00:00.0000 TDB
Step-size       : 7200 minutes
*******************************************************************************
Center geodetic : 0.00000000,0.00000000,0.0000000 {E-lon(deg),Lat(deg),Alt(km)}
Center cylindric: 0.00000000,0.00000000,0.0000000 {E-lon(deg),Dxy(km),Dz(km)}
Center radii    : (undefined)                                                  
Small perturbers: Yes                             {source: SB431-N16}
Output units    : AU-D
Output type     : GEOMETRIC cartesian states
Output format   : 2 (position and velocity)
Reference frame : Ecliptic of J2000.0
*******************************************************************************
Initial IAU76/J2000 heliocentric ecliptic osculating elements (au, days, deg.):
  EPOCH=  2456006.5 ! 2012-Mar-20.00 (TDB)         Residual RMS= .3251         
   EC= .0855138910204061   QR= 2.090882381939687   TP= 2456574.240278407       
   OM= 186.5128472728368   W=  132.3285300929045   IN= 9.573217567445452       
  Equivalent ICRF heliocentric equatorial cartesian coordinates (au, au/d):
   X=-2.225322298701400E+00  Y= 1.057761273982519E+00  Z= 2.190363638658168E-01
  VX=-4.337854598530773E-03 VY=-9.239586508300044E-03 VZ=-2.375461109457452E-03
Asteroid physical parameters (km, seconds, rotational period in hours):        
   GM= n.a.                RAD= 18.4465            ROTPER= 11.4969             
   H= 9.7                  G= .150                 B-V= .752                   
                           ALBEDO= .201            STYP= Xe                    
*******************************************************************************
            JDTDB,            Calendar Date (TDB),        delta-T,                      X,                      Y,                      Z,                     VX,                     VY,                     VZ,
******************************************************************************************************************************************************************************************************************
$$SOE
2446840.500000000, A.D. 1987-Feb-14 00:00:00.0000,      55.185084,  6.545821432296923E-01,  2.237354835532973E+00, -3.606446630287899E-01, -1.031655059811955E-02,  3.829446413832037E-03, -8.468183083355677E-04,
2446845.500000000, A.D. 1987-Feb-19 00:00:00.0000,      55.185188,  6.028182885660106E-01,  2.255869412579644E+00, -3.647764450090275E-01, -1.038795084303143E-02,  3.576270761768763E-03, -8.058547939893230E-04,
2446850.500000000, A.D. 1987-Feb-24 00:00:00.0000,      55.185285,  5.507130114948939E-01,  2.273116522451671E+00, -3.687028339952429E-01, -1.045312514921655E-02,  3.322482593362985E-03, -7.646650809032102E-04,
2446855.500000000, A.D. 1987-Mar-01 00:00:00.0000,      55.185374,  4.982973559604640E-01,  2.289093445890749E+00, -3.724227581798197E-01, -1.051210819712173E-02,  3.068218755369699E-03, -7.232727702507379E-04,
2446860.500000000, A.D. 1987-Mar-06 00:00:00.0000,      55.185452,  4.456021869161219E-01,  2.303798140656204E+00, -3.759352626637034E-01, -1.056493687852337E-02,  2.813613212812812E-03, -6.817010246301362E-04,
2446865.500000000, A.D. 1987-Mar-11 00:00:00.0000,      55.185517,  3.926581796244457E-01,  2.317229227190338E+00, -3.792395072693507E-01, -1.061165015483107E-02,  2.558797079192688E-03, -6.399725705085553E-04,
2446870.500000000, A.D. 1987-Mar-16 00:00:00.0000,      55.185570,  3.394958096511553E-01,  2.329385974443825E+00, -3.823347643674710E-01, -1.065228892124063E-02,  2.303898650300936E-03, -5.981097012811195E-04,
2446875.500000000, A.D. 1987-Mar-21 00:00:00.0000,      55.185611,  2.861453435232659E-01,  2.340268285879403E+00, -3.852204167206420E-01, -1.068689587688981E-02,  2.049043441725096E-03, -5.561342809725289E-04,
2446880.500000000, A.D. 1987-Mar-26 00:00:00.0000,      55.185642,  2.326368300217748E-01,  2.349876685672076E+00, -3.878959553471101E-01, -1.071551540086147E-02,  1.794354229909989E-03, -5.140677486104853E-04,
2446885.500000000, A.D. 1987-Mar-31 00:00:00.0000,      55.185661,  1.790000920800028E-01,  2.358212305122909E+00, -3.903609774080949E-01, -1.073819343389983E-02,  1.539951096474724E-03, -4.719311232428392E-04,
2446890.500000000, A.D. 1987-Apr-05 00:00:00.0000,      55.185668,  1.252647192592867E-01,  2.365276869301833E+00, -3.926151841216742E-01, -1.075497736573854E-02,  1.285951475443413E-03, -4.297450095471119E-04,
2446895.500000000, A.D. 1987-Apr-10 00:00:00.0000,      55.185661,  7.146006077418685E-02,  2.371072683933195E+00, -3.946583787060891E-01, -1.076591592795194E-02,  1.032470203059211E-03, -3.875296039773104E-04,
2446900.500000000, A.D. 1987-Apr-15 00:00:00.0000,      55.185641,  1.761521903981755E-02,  2.375602622536185E+00, -3.964904643550120E-01, -1.077105909223928E-02,  7.796195698695361E-04, -3.453047013938620E-04,
2446905.500000000, A.D. 1987-Apr-20 00:00:00.0000,      55.185609, -3.624095628563026E-02,  2.378870113830738E+00, -3.981114422470583E-01, -1.077045797404705E-02,  5.275093747859754E-04, -3.030897021241421E-04,
2446910.500000000, A.D. 1987-Apr-25 00:00:00.0000,      55.185567, -9.007987378962820E-02,  2.380879129418100E+00, -3.995214095915752E-01, -1.076416474144050E-02,  2.762469808402720E-04, -2.609036194020851E-04,
2446915.500000000, A.D. 1987-Apr-30 00:00:00.0000,      55.185514, -1.438732053513779E-01,  2.381634171743861E+00, -4.007205577124708E-01, -1.075223252914822E-02,  2.593737238257924E-05, -2.187650871392344E-04,
2446920.500000000, A.D. 1987-May-05 00:00:00.0000,      55.185450, -1.975928907709816E-01,  2.381140262350277E+00, -4.017091701716911E-01, -1.073471535776491E-02, -2.233167864135376E-04, -1.766923680170933E-04,
2446925.500000000, A.D. 1987-May-10 00:00:00.0000,      55.185375, -2.512111420074152E-01,  2.379402930424480E+00, -4.024876209341089E-01, -1.071166805803461E-02, -4.714150916561246E-04, -1.347033619838816E-04,
2446930.500000000, A.D. 1987-May-15 00:00:00.0000,      55.185288, -3.047004470497121E-01,  2.376428201650041E+00, -4.030563725762271E-01, -1.068314619970171E-02, -7.182593383308635E-04, -9.281561528974949E-05,
2446935.500000000, A.D. 1987-May-20 00:00:00.0000,      55.185192, -3.580335734417374E-01,  2.372222587367364E+00, -4.034159745408459E-01, -1.064920602400120E-02, -9.637534585103053E-04, -5.104632970656442E-05,
2446940.500000000, A.D. 1987-May-25 00:00:00.0000,      55.185090, -4.111835714793954E-01,  2.366793074039943E+00, -4.035670614366005E-01, -1.060990438044780E-02, -1.207803460904371E-03, -9.412371196647927E-06,
2446945.500000000, A.D. 1987-May-30 00:00:00.0000,      55.184981, -4.641237771061356E-01,  2.360147113021642E+00, -4.035103513801709E-01, -1.056529866944372E-02, -1.450317370444916E-03,  3.206972149626861E-05,
2446950.500000000, A.D. 1987-Jun-04 00:00:00.0000,      55.184864, -5.168278145343115E-01,  2.352292610630228E+00, -4.032466443831862E-01, -1.051544678968597E-02, -1.691205166189263E-03,  7.338372753339118E-05,
2446955.500000000, A.D. 1987-Jun-09 00:00:00.0000,      55.184739, -5.692695986125088E-01,  2.343237918533580E+00, -4.027768207868853E-01, -1.046040708907940E-02, -1.930378718604774E-03,  1.145137342937938E-04,
2446960.500000000, A.D. 1987-Jun-14 00:00:00.0000,      55.184609, -6.214233369563731E-01,  2.332991824448563E+00, -4.021018397451684E-01, -1.040023831929277E-02, -2.167751727302270E-03,  1.554441277357147E-04,
2446965.500000000, A.D. 1987-Jun-19 00:00:00.0000,      55.184475, -6.732635318619783E-01,  2.321563543149817E+00, -4.012227377556344E-01, -1.033499959423729E-02, -2.403239659313049E-03,  1.961595828288796E-04,
2446970.500000000, A.D. 1987-Jun-24 00:00:00.0000,      55.184339, -7.247649820213987E-01,  2.308962707786048E+00, -4.001406272384316E-01, -1.026475035245204E-02, -2.636759687794680E-03,  2.366450539856313E-04,
2446975.500000000, A.D. 1987-Jun-29 00:00:00.0000,      55.184201, -7.759027840597054E-01,  2.295199361501824E+00, -3.988566951630528E-01, -1.018955032326222E-02, -2.868230631127073E-03,  2.768857654499964E-04,
